[{"OBJECT_NAME":"DELTA 2 R/B","OBJECT_ID":"1999-041E","EPOCH":"2026-03-04T03:10:31.384416","MEAN_MOTION":14.11818994,"ECCENTRICITY":0.0502347,"INCLINATION":51.7645,"RA_OF_ASC_NODE":323.477,"ARG_OF_PERICENTER":332.0291,"MEAN_ANOMALY":25.4449,"EPHEMERIS_TYPE":0,"CLASSIFICATION_TYPE":"U","NORAD_CAT_ID":25876,"ELEMENT_SET_NO":999,"REV_AT_EPOCH":36224,"BSTAR":0.00034235,"MEAN_MOTION_DOT":1.895e-5,"MEAN_MOTION_DDOT":0},{"OBJECT_NAME":"HELIOS 1B","OBJECT_ID":"1999-064A","EPOCH":"2026-03-04T03:09:05.981472","MEAN_MOTION":14.87671331,"ECCENTRICITY":0.0002519,"INCLINATION":98.1702,"RA_OF_ASC_NODE":325.2112,"ARG_OF_PERICENTER":82.6134,"MEAN_ANOMALY":277.5367,"EPHEMERIS_TYPE":0,"CLASSIFICATION_TYPE":"U","NORAD_CAT_ID":25977,"ELEMENT_SET_NO":999,"REV_AT_EPOCH":68443,"BSTAR":0.00034136,"MEAN_MOTION_DOT":3.05e-5,"MEAN_MOTION_DDOT":0},{"OBJECT_NAME":"TERRA","OBJECT_ID":"1999-068A","EPOCH":"2026-03-04T04:02:48.540768","MEAN_MOTION":14.61008222,"ECCENTRICITY":0.0002341,"INCLINATION":97.9604,"RA_OF_ASC_NODE":116.814,"ARG_OF_PERICENTER":164.7813,"MEAN_ANOMALY":260.5333,"EPHEMERIS_TYPE":0,"CLASSIFICATION_TYPE":"U","NORAD_CAT_ID":25994,"ELEMENT_SET_NO":999,"REV_AT_EPOCH":39427,"BSTAR":0.00014267,"MEAN_MOTION_DOT":6.55e-6,"MEAN_MOTION_DDOT":0},{"OBJECT_NAME":"SL-16 R/B","OBJECT_ID":"2000-006B","EPOCH":"2026-03-04T03:33:42.808032","MEAN_MOTION":14.1582479,"ECCENTRICITY":0.0017172,"INCLINATION":71.0013,"RA_OF_ASC_NODE":109.4896,"ARG_OF_PERICENTER":197.87,"MEAN_ANOMALY":162.1821,"EPHEMERIS_TYPE":0,"CLASSIFICATION_TYPE":"U","NORAD_CAT_ID":26070,"ELEMENT_SET_NO":999,"REV_AT_EPOCH":34777,"BSTAR":0.00012843,"MEAN_MOTION_DOT":2.05e-6,"MEAN_MOTION_DDOT":0},{"OBJECT_NAME":"TITAN 4B R/B","OBJECT_ID":"2000-047B","EPOCH":"2026-03-04T03:08:17.912832","MEAN_MOTION":15.09497271,"ECCENTRICITY":0.0038033,"INCLINATION":67.9885,"RA_OF_ASC_NODE":56.1406,"ARG_OF_PERICENTER":41.968,"MEAN_ANOMALY":318.4372,"EPHEMERIS_TYPE":0,"CLASSIFICATION_TYPE":"U","NORAD_CAT_ID":26474,"ELEMENT_SET_NO":999,"REV_AT_EPOCH":39207,"BSTAR":0.00037138,"MEAN_MOTION_DOT":5.936e-5,"MEAN_MOTION_DDOT":0},{"OBJECT_NAME":"ENVISAT","OBJECT_ID":"2002-009A","EPOCH":"2026-03-03T20:03:02.002176","MEAN_MOTION":14.39034374,"ECCENTRICITY":0.00013326,"INCLINATION":98.3719,"RA_OF_ASC_NODE":16.5725,"ARG_OF_PERICENTER":84.6244,"MEAN_ANOMALY":308.1164,"EPHEMERIS_TYPE":0,"CLASSIFICATION_TYPE":"U","NORAD_CAT_ID":27386,"ELEMENT_SET_NO":999,"REV_AT_EPOCH":25833,"BSTAR":7.0207056e-5,"MEAN_MOTION_DOT":1.74e-6,"MEAN_MOTION_DDOT":0},{"OBJECT_NAME":"IDEFIX & ARIANE 42P R/B","OBJECT_ID":"2002-021B","EPOCH":"2026-03-03T19:58:33.898656","MEAN_MOTION":14.31021372,"ECCENTRICITY":0.0011242,"INCLINATION":98.5864,"RA_OF_ASC_NODE":1.5088,"ARG_OF_PERICENTER":200.0167,"MEAN_ANOMALY":160.0576,"EPHEMERIS_TYPE":0,"CLASSIFICATION_TYPE":"U","NORAD_CAT_ID":27422,"ELEMENT_SET_NO":999,"REV_AT_EPOCH":24318,"BSTAR":0.00016835,"MEAN_MOTION_DOT":4.0e-6,"MEAN_MOTION_DDOT":0},{"OBJECT_NAME":"AQUA","OBJECT_ID":"2002-022A","EPOCH":"2026-03-04T03:23:06.734688","MEAN_MOTION":14.61961369,"ECCENTRICITY":6.42e-5,"INCLINATION":98.4165,"RA_OF_ASC_NODE":30.4053,"ARG_OF_PERICENTER":59.4152,"MEAN_ANOMALY":2.9589,"EPHEMERIS_TYPE":0,"CLASSIFICATION_TYPE":"U","NORAD_CAT_ID":27424,"ELEMENT_SET_NO":999,"REV_AT_EPOCH":26792,"BSTAR":0.00031298,"MEAN_MOTION_DOT":1.519e-5,"MEAN_MOTION_DDOT":0},{"OBJECT_NAME":"CZ-4B R/B","OBJECT_ID":"2002-024C","EPOCH":"2026-03-04T02:59:00.994848","MEAN_MOTION":14.14546424,"ECCENTRICITY":0.0050725,"INCLINATION":98.885,"RA_OF_ASC_NODE":116.5588,"ARG_OF_PERICENTER":39.8521,"MEAN_ANOMALY":347.046,"EPHEMERIS_TYPE":0,"CLASSIFICATION_TYPE":"U","NORAD_CAT_ID":27432,"ELEMENT_SET_NO":999,"REV_AT_EPOCH":22845,"BSTAR":5.626e-5,"MEAN_MOTION_DOT":6.5e-7,"MEAN_MOTION_DDOT":0},{"OBJECT_NAME":"MIDORI II (ADEOS-II)","OBJECT_ID":"2002-056A","EPOCH":"2026-03-03T20:28:44.456448","MEAN_MOTION":14.29279827,"ECCENTRICITY":0.0001796,"INCLINATION":98.7759,"RA_OF_ASC_NODE":21.291,"ARG_OF_PERICENTER":51.1824,"MEAN_ANOMALY":308.9517,"EPHEMERIS_TYPE":0,"CLASSIFICATION_TYPE":"U","NORAD_CAT_ID":27597,"ELEMENT_SET_NO":999,"REV_AT_EPOCH":20946,"BSTAR":0.00018321,"MEAN_MOTION_DOT":4.21e-6,"MEAN_MOTION_DDOT":0},{"OBJECT_NAME":"H-2A R/B","OBJECT_ID":"2002-056E","EPOCH":"2026-03-03T20:05:42.403776","MEAN_MOTION":14.33756197,"ECCENTRICITY":0.00701352,"INCLINATION":98.3192,"RA_OF_ASC_NODE":23.426,"ARG_OF_PERICENTER":178.0645,"MEAN_ANOMALY":202.1846,"EPHEMERIS_TYPE":0,"CLASSIFICATION_TYPE":"U","NORAD_CAT_ID":27601,"ELEMENT_SET_NO":999,"REV_AT_EPOCH":21327,"BSTAR":0.00013821928,"MEAN_MOTION_DOT":3.53e-6,"MEAN_MOTION_DDOT":0},{"OBJECT_NAME":"CZ-4B R/B","OBJECT_ID":"2003-049C","EPOCH":"2026-03-03T14:34:05.718432","MEAN_MOTION":14.55013265,"ECCENTRICITY":0.0047056,"INCLINATION":98.6873,"RA_OF_ASC_NODE":57.2734,"ARG_OF_PERICENTER":249.8633,"MEAN_ANOMALY":109.7497,"EPHEMERIS_TYPE":0,"CLASSIFICATION_TYPE":"U","NORAD_CAT_ID":28059,"ELEMENT_SET_NO":999,"REV_AT_EPOCH":18571,"BSTAR":0.0001378,"MEAN_MOTION_DOT":5.5e-6,"MEAN_MOTION_DDOT":0},{"OBJECT_NAME":"CZ-2C R/B","OBJECT_ID":"2004-012C","EPOCH":"2026-03-04T04:06:31.902912","MEAN_MOTION":15.63762571,"ECCENTRICITY":0.0013212,"INCLINATION":97.7244,"RA_OF_ASC_NODE":127.9435,"ARG_OF_PERICENTER":331.6844,"MEAN_ANOMALY":28.3694,"EPHEMERIS_TYPE":0,"CLASSIFICATION_TYPE":"U","NORAD_CAT_ID":28222,"ELEMENT_SET_NO":999,"REV_AT_EPOCH":20341,"BSTAR":0.00075524,"MEAN_MOTION_DOT":0.00071201,"MEAN_MOTION_DDOT":0},{"OBJECT_NAME":"SL-16 R/B","OBJECT_ID":"2004-021B","EPOCH":"2026-03-03T20:53:50.623584","MEAN_MOTION":14.14599553,"ECCENTRICITY":0.0003733,"INCLINATION":70.9992,"RA_OF_ASC_NODE":244.7047,"ARG_OF_PERICENTER":21.1238,"MEAN_ANOMALY":339.0037,"EPHEMERIS_TYPE":0,"CLASSIFICATION_TYPE":"U","NORAD_CAT_ID":28353,"ELEMENT_SET_NO":999,"REV_AT_EPOCH":12201,"BSTAR":-4.78e-5,"MEAN_MOTION_DOT":-1.4e-6,"MEAN_MOTION_DDOT":0},{"OBJECT_NAME":"CZ-4B R/B","OBJECT_ID":"2004-035C","EPOCH":"2026-03-04T02:01:59.680992","MEAN_MOTION":15.28943125,"ECCENTRICITY":0.0031572,"INCLINATION":97.3503,"RA_OF_ASC_NODE":97.3943,"ARG_OF_PERICENTER":351.8851,"MEAN_ANOMALY":8.1874,"EPHEMERIS_TYPE":0,"CLASSIFICATION_TYPE":"U","NORAD_CAT_ID":28415,"ELEMENT_SET_NO":999,"REV_AT_EPOCH":17905,"BSTAR":0.0004141,"MEAN_MOTION_DOT":0.00011746,"MEAN_MOTION_DDOT":0},{"OBJECT_NAME":"CZ-2C R/B","OBJECT_ID":"2004-046B","EPOCH":"2026-03-03T17:39:34.482528","MEAN_MOTION":14.26989818,"ECCENTRICITY":0.01395225,"INCLINATION":98.1987,"RA_OF_ASC_NODE":338.0901,"ARG_OF_PERICENTER":172.0058,"MEAN_ANOMALY":188.3394,"EPHEMERIS_TYPE":0,"CLASSIFICATION_TYPE":"U","NORAD_CAT_ID":28480,"ELEMENT_SET_NO":999,"REV_AT_EPOCH":10765,"BSTAR":7.2528166e-5,"MEAN_MOTION_DOT":1.55e-6,"MEAN_MOTION_DDOT":0},{"OBJECT_NAME":"ARIANE 5 R/B","OBJECT_ID":"2004-049H","EPOCH":"2026-03-04T00:59:09.674016","MEAN_MOTION":14.85254001,"ECCENTRICITY":0.0084353,"INCLINATION":98.2617,"RA_OF_ASC_NODE":231.2869,"ARG_OF_PERICENTER":10.2262,"MEAN_ANOMALY":350.0643,"EPHEMERIS_TYPE":0,"CLASSIFICATION_TYPE":"U","NORAD_CAT_ID":28499,"ELEMENT_SET_NO":999,"REV_AT_EPOCH":14495,"BSTAR":0.00013261,"MEAN_MOTION_DOT":1.148e-5,"MEAN_MOTION_DDOT":0}]
